ION SCV-004             
1 50993U 22002K   26068.68892644  .00006538  00000+0  23198-3 0  9998
2 50993  97.2961 128.2294 0007216   1.6783 358.4480 15.29369331230088
STARLINK-31588          
1 59335U 24057R   26068.36697532 -.00001330  00000+0 -38829-4 0  9998
2 59335  42.9984 188.5548 0000557 270.0598  90.0190 15.27580923109797
